{
  "type": "FeatureCollection",
  "features": [
    {
      "type": "Feature",
      "properties": {
        "norad_id": 33844,
        "name": "COSMOS 2251 DEB",
        "group": "cosmos-2251-debris",
        "lat": -73.25443925933001,
        "lon": -74.63035664433595,
        "alt_km": 814.6342618474218,
        "timestamp": "2025-12-23T05:02:12.422719+00:00",
        "meta_object_name": "COSMOS 2251 DEB",
        "meta_object_id": "1993-036CM",
        "meta_epoch": "2025-12-22T20:14:08.535840",
        "meta_mean_motion": 14.33735287,
        "meta_eccentricity": 0.00471454,
        "meta_inclination": 74.0665,
        "meta_ra_of_asc_node": 34.3331,
        "meta_arg_of_pericenter": 53.0168,
        "meta_mean_anomaly": 120.0724,
        "meta_ephemeris_type": 0,
        "meta_classification_type": "U",
        "meta_norad_cat_id": 33844,
        "meta_element_set_no": 999,
        "meta_rev_at_epoch": 87870,
        "meta_bstar": 0.00030644397,
        "meta_mean_motion_dot": 8.36e-06,
        "meta_mean_motion_ddot": 0,
        "tle_line1": "1 33844U 93036CM  25356.84315435  .00000836  00000+0  30644-3 0  9993",
        "tle_line2": "2 33844  74.0665  34.3331 0047145  53.0168 120.0724 14.33735287878702"
      },
      "geometry": {
        "type": "Point",
        "coordinates": [
          -74.63035664433595,
          -73.25443925933001
        ]
      }
    },
    {
      "type": "Feature",
      "properties": {
        "norad_id": 33848,
        "name": "COSMOS 2251 DEB",
        "group": "cosmos-2251-debris",
        "lat": 60.28051778953891,
        "lon": 128.05540726772148,
        "alt_km": 735.6699543300938,
        "timestamp": "2025-12-23T05:02:12.422730+00:00",
        "meta_object_name": "COSMOS 2251 DEB",
        "meta_object_id": "1993-036CR",
        "meta_epoch": "2025-12-22T09:06:02.087712",
        "meta_mean_motion": 14.44124246,
        "meta_eccentricity": 0.00417102,
        "meta_inclination": 74.0318,
        "meta_ra_of_asc_node": 339.706,
        "meta_arg_of_pericenter": 32.6758,
        "meta_mean_anomaly": 85.3864,
        "meta_ephemeris_type": 0,
        "meta_classification_type": "U",
        "meta_norad_cat_id": 33848,
        "meta_element_set_no": 999,
        "meta_rev_at_epoch": 87970,
        "meta_bstar": 0.0010952854,
        "meta_mean_motion_dot": 3.768e-05,
        "meta_mean_motion_ddot": 0,
        "tle_line1": "1 33848U 93036CR  25356.37919083  .00003768  00000+0  10953-2 0  9991",
        "tle_line2": "2 33848  74.0318 339.7060 0041710  32.6758  85.3864 14.44124246879700"
      },
      "geometry": {
        "type": "Point",
        "coordinates": [
          128.05540726772148,
          60.28051778953891
        ]
      }
    },
    {
      "type": "Feature",
      "properties": {
        "norad_id": 33892,
        "name": "COSMOS 2251 DEB",
        "group": "cosmos-2251-debris",
        "lat": -21.535532527653345,
        "lon": 76.3710042714233,
        "alt_km": 875.0453178151147,
        "timestamp": "2025-12-23T05:02:12.422740+00:00",
        "meta_object_name": "COSMOS 2251 DEB",
        "meta_object_id": "1993-036CV",
        "meta_epoch": "2025-12-22T16:21:10.143360",
        "meta_mean_motion": 14.23369632,
        "meta_eccentricity": 0.0112264,
        "meta_inclination": 73.8025,
        "meta_ra_of_asc_node": 83.9214,
        "meta_arg_of_pericenter": 113.2081,
        "meta_mean_anomaly": 38.3103,
        "meta_ephemeris_type": 0,
        "meta_classification_type": "U",
        "meta_norad_cat_id": 33892,
        "meta_element_set_no": 999,
        "meta_rev_at_epoch": 87096,
        "meta_bstar": 0.0005543209,
        "meta_mean_motion_dot": 1.316e-05,
        "meta_mean_motion_ddot": 0,
        "tle_line1": "1 33892U 93036CV  25356.68136740  .00001316  00000+0  55432-3 0  9994",
        "tle_line2": "2 33892  73.8025  83.9214 0112264 113.2081  38.3103 14.23369632870968"
      },
      "geometry": {
        "type": "Point",
        "coordinates": [
          76.3710042714233,
          -21.535532527653345
        ]
      }
    },
    {
      "type": "Feature",
      "properties": {
        "norad_id": 33894,
        "name": "COSMOS 2251 DEB",
        "group": "cosmos-2251-debris",
        "lat": 12.038638786091104,
        "lon": -23.559356281449897,
        "alt_km": 1391.7928861710816,
        "timestamp": "2025-12-23T05:02:12.422750+00:00",
        "meta_object_name": "COSMOS 2251 DEB",
        "meta_object_id": "1993-036CX",
        "meta_epoch": "2025-12-21T16:37:48.062496",
        "meta_mean_motion": 13.21322128,
        "meta_eccentricity": 0.05789659,
        "meta_inclination": 73.7665,
        "meta_ra_of_asc_node": 335.2246,
        "meta_arg_of_pericenter": 253.4651,
        "meta_mean_anomaly": 100.2107,
        "meta_ephemeris_type": 0,
        "meta_classification_type": "U",
        "meta_norad_cat_id": 33894,
        "meta_element_set_no": 999,
        "meta_rev_at_epoch": 80826,
        "meta_bstar": 0.00065478931,
        "meta_mean_motion_dot": 6.27e-06,
        "meta_mean_motion_ddot": 0,
        "tle_line1": "1 33894U 93036CX  25355.69291739  .00000627  00000+0  65479-3 0  9992",
        "tle_line2": "2 33894  73.7665 335.2246 0578965 253.4651 100.2107 13.21322128808264"
      },
      "geometry": {
        "type": "Point",
        "coordinates": [
          -23.559356281449897,
          12.038638786091104
        ]
      }
    },
    {
      "type": "Feature",
      "properties": {
        "norad_id": 33896,
        "name": "COSMOS 2251 DEB",
        "group": "cosmos-2251-debris",
        "lat": -59.875704967098834,
        "lon": -12.185331231409855,
        "alt_km": 799.2056308604533,
        "timestamp": "2025-12-23T05:02:12.422760+00:00",
        "meta_object_name": "COSMOS 2251 DEB",
        "meta_object_id": "1993-036CZ",
        "meta_epoch": "2025-12-22T20:08:36.572352",
        "meta_mean_motion": 14.19060112,
        "meta_eccentricity": 0.01270339,
        "meta_inclination": 73.7663,
        "meta_ra_of_asc_node": 138.3472,
        "meta_arg_of_pericenter": 312.4131,
        "meta_mean_anomaly": 200.8656,
        "meta_ephemeris_type": 0,
        "meta_classification_type": "U",
        "meta_norad_cat_id": 33896,
        "meta_element_set_no": 999,
        "meta_rev_at_epoch": 86883,
        "meta_bstar": 0.00046023558,
        "meta_mean_motion_dot": 1.014e-05,
        "meta_mean_motion_ddot": 0,
        "tle_line1": "1 33896U 93036CZ  25356.83931218  .00001014  00000+0  46024-3 0  9990",
        "tle_line2": "2 33896  73.7663 138.3472 0127033 312.4131 200.8656 14.19060112868837"
      },
      "geometry": {
        "type": "Point",
        "coordinates": [
          -12.185331231409855,
          -59.875704967098834
        ]
      }
    },
    {
      "type": "Feature",
      "properties": {
        "norad_id": 33899,
        "name": "COSMOS 2251 DEB",
        "group": "cosmos-2251-debris",
        "lat": 49.79211120091152,
        "lon": 85.4985052818947,
        "alt_km": 672.2015768758774,
        "timestamp": "2025-12-23T05:02:12.422770+00:00",
        "meta_object_name": "COSMOS 2251 DEB",
        "meta_object_id": "1993-036DC",
        "meta_epoch": "2025-12-22T16:13:37.853184",
        "meta_mean_motion": 14.61268566,
        "meta_eccentricity": 0.00560782,
        "meta_inclination": 74.0535,
        "meta_ra_of_asc_node": 66.7472,
        "meta_arg_of_pericenter": 126.5252,
        "meta_mean_anomaly": 0.1559,
        "meta_ephemeris_type": 0,
        "meta_classification_type": "U",
        "meta_norad_cat_id": 33899,
        "meta_element_set_no": 999,
        "meta_rev_at_epoch": 88984,
        "meta_bstar": 0.00079181066,
        "meta_mean_motion_dot": 3.967e-05,
        "meta_mean_motion_ddot": 0,
        "tle_line1": "1 33899U 93036DC  25356.67613256  .00003967  00000+0  79181-3 0  9993",
        "tle_line2": "2 33899  74.0535  66.7472 0056078 126.5252   0.1559 14.61268566889841"
      },
      "geometry": {
        "type": "Point",
        "coordinates": [
          85.4985052818947,
          49.79211120091152
        ]
      }
    },
    {
      "type": "Feature",
      "properties": {
        "norad_id": 33900,
        "name": "COSMOS 2251 DEB",
        "group": "cosmos-2251-debris",
        "lat": -18.930778435468323,
        "lon": -25.727403246230914,
        "alt_km": 731.134116410235,
        "timestamp": "2025-12-23T05:02:12.422780+00:00",
        "meta_object_name": "COSMOS 2251 DEB",
        "meta_object_id": "1993-036DD",
        "meta_epoch": "2025-12-22T22:40:41.139840",
        "meta_mean_motion": 14.58381311,
        "meta_eccentricity": 0.0046417,
        "meta_inclination": 74.0183,
        "meta_ra_of_asc_node": 340.4181,
        "meta_arg_of_pericenter": 129.5398,
        "meta_mean_anomaly": 260.6885,
        "meta_ephemeris_type": 0,
        "meta_classification_type": "U",
        "meta_norad_cat_id": 33900,
        "meta_element_set_no": 999,
        "meta_rev_at_epoch": 89185,
        "meta_bstar": 0.00036017619,
        "meta_mean_motion_dot": 1.664e-05,
        "meta_mean_motion_ddot": 0,
        "tle_line1": "1 33900U 93036DD  25356.94492060  .00001664  00000+0  36018-3 0  9998",
        "tle_line2": "2 33900  74.0183 340.4181 0046417 129.5398 260.6885 14.58381311891851"
      },
      "geometry": {
        "type": "Point",
        "coordinates": [
          -25.727403246230914,
          -18.930778435468323
        ]
      }
    }
  ]
}